{"type": "FeatureCollection", "features": [ {"type": "Feature", "properties": {"norad_id": 30242, "name": "FENGYUN 1C DEB", "group": "fengyun-1c-debris", "lat": -40.36939253336659, "lon": -156.90225499248393, "alt_km": 847.2374791326665, "timestamp": "2025-12-22T14:45:57.677512+00:00", "meta": {"OBJECT_NAME": "FENGYUN 1C DEB", "OBJECT_ID": "1999-025XB", "EPOCH": "2025-12-21T13:06:17.036064", "MEAN_MOTION": 14.17657802, "ECCENTRICITY": 0.0010677, "INCLINATION": 98.6826, "RA_OF_ASC_NODE": 29.5172, "ARG_OF_PERICENTER": 30.1382, "MEAN_ANOMALY": 136.9609, "EPHEMERIS_TYPE": 0, "CLASSIFICATION_TYPE": "U", "NORAD_CAT_ID": 30242, "ELEMENT_SET_NO": 999, "REV_AT_EPOCH": 97551, "BSTAR": 0.00047815, "MEAN_MOTION_DOT": 9.3e-06, "MEAN_MOTION_DDOT": 0}, "tle": {"line1": "1 30242U 99025XB  25355.54603051  .00000930  00000+0  47815-3 0  9999", "line2": "2 30242  98.6826  29.5172 0010677  30.1382 136.9609 14.17657802975518"}}, "geometry": {"type": "Point", "coordinates": [-156.90225499248393, -40.36939253336659]}}, {"type": "Feature", "properties": {"norad_id": 30243, "name": "FENGYUN 1C DEB", "group": "fengyun-1c-debris", "lat": 38.70564061549228, "lon": -165.21080366810415, "alt_km": 839.6313646193075, "timestamp": "2025-12-22T14:45:57.677522+00:00", "meta": {"OBJECT_NAME": "FENGYUN 1C DEB", "OBJECT_ID": "1999-025XC", "EPOCH": "2025-12-21T01:00:46.022112", "MEAN_MOTION": 14.13032996, "ECCENTRICITY": 0.00132068, "INCLINATION": 98.6926, "RA_OF_ASC_NODE": 6.2203, "ARG_OF_PERICENTER": 97.2954, "MEAN_ANOMALY": 325.7567, "EPHEMERIS_TYPE": 0, "CLASSIFICATION_TYPE": "U", "NORAD_CAT_ID": 30243, "ELEMENT_SET_NO": 999, "REV_AT_EPOCH": 97396, "BSTAR": 0.00030039637, "MEAN_MOTION_DOT": 5.18e-06, "MEAN_MOTION_DDOT": 0}, "tle": {"line1": "1 30243U 99025XC  25355.04219933  .00000518  00000+0  30040-3 0  9991", "line2": "2 30243  98.6926   6.2203 0013206  97.2954 325.7567 14.13032996973962"}}, "geometry": {"type": "Point", "coordinates": [-165.21080366810415, 38.70564061549228]}}, {"type": "Feature", "properties": {"norad_id": 30244, "name": "FENGYUN 1C DEB", "group": "fengyun-1c-debris", "lat": 45.96879141378644, "lon": -123.08084122420387, "alt_km": 841.554343113452, "timestamp": "2025-12-22T14:45:57.677533+00:00", "meta": {"OBJECT_NAME": "FENGYUN 1C DEB", "OBJECT_ID": "1999-025XD", "EPOCH": "2025-12-22T06:39:31.813056", "MEAN_MOTION": 14.15029175, "ECCENTRICITY": 0.00091942, "INCLINATION": 99.1434, "RA_OF_ASC_NODE": 246.163, "ARG_OF_PERICENTER": 286.8982, "MEAN_ANOMALY": 199.9904, "EPHEMERIS_TYPE": 0, "CLASSIFICATION_TYPE": "U", "NORAD_CAT_ID": 30244, "ELEMENT_SET_NO": 999, "REV_AT_EPOCH": 97481, "BSTAR": 0.00033944557, "MEAN_MOTION_DOT": 6.11e-06, "MEAN_MOTION_DDOT": 0}, "tle": {"line1": "1 30244U 99025XD  25356.27745154  .00000611  00000+0  33945-3 0  9998", "line2": "2 30244  99.1434 246.1630 0009194 286.8982 199.9904 14.15029175974818"}}, "geometry": {"type": "Point", "coordinates": [-123.08084122420387, 45.96879141378644]}}, {"type": "Feature", "properties": {"norad_id": 30245, "name": "FENGYUN 1C DEB", "group": "fengyun-1c-debris", "lat": -7.603254362337818, "lon": -15.191482650411752, "alt_km": 1056.294190785099, "timestamp": "2025-12-22T14:45:57.677544+00:00", "meta": {"OBJECT_NAME": "FENGYUN 1C DEB", "OBJECT_ID": "1999-025XE", "EPOCH": "2025-12-22T06:05:52.740960", "MEAN_MOTION": 13.79089752, "ECCENTRICITY": 0.01928948, "INCLINATION": 98.8896, "RA_OF_ASC_NODE": 343.2724, "ARG_OF_PERICENTER": 225.4551, "MEAN_ANOMALY": 133.071, "EPHEMERIS_TYPE": 0, "CLASSIFICATION_TYPE": "U", "NORAD_CAT_ID": 30245, "ELEMENT_SET_NO": 999, "REV_AT_EPOCH": 94825, "BSTAR": 0.00086334487, "MEAN_MOTION_DOT": 9.73e-06, "MEAN_MOTION_DDOT": 0}, "tle": {"line1": "1 30245U 99025XE  25356.25408265  .00000973  00000+0  86334-3 0  9997", "line2": "2 30245  98.8896 343.2724 0192894 225.4551 133.0710 13.79089752948250"}}, "geometry": {"type": "Point", "coordinates": [-15.191482650411752, -7.603254362337818]}}, {"type": "Feature", "properties": {"norad_id": 30246, "name": "FENGYUN 1C DEB", "group": "fengyun-1c-debris", "lat": 31.54904201548892, "lon": 133.4714912461268, "alt_km": 910.2138791931739, "timestamp": "2025-12-22T14:45:57.677555+00:00", "meta": {"OBJECT_NAME": "FENGYUN 1C DEB", "OBJECT_ID": "1999-025XF", "EPOCH": "2025-12-22T04:41:46.192992", "MEAN_MOTION": 13.37022656, "ECCENTRICITY": 0.03705325, "INCLINATION": 98.6736, "RA_OF_ASC_NODE": 138.4907, "ARG_OF_PERICENTER": 75.9901, "MEAN_ANOMALY": 100.4014, "EPHEMERIS_TYPE": 0, "CLASSIFICATION_TYPE": "U", "NORAD_CAT_ID": 30246, "ELEMENT_SET_NO": 999, "REV_AT_EPOCH": 92266, "BSTAR": 0.00025164814, "MEAN_MOTION_DOT": 1.62e-06, "MEAN_MOTION_DDOT": 0}, "tle": {"line1": "1 30246U 99025XF  25356.19567353  .00000162  00000+0  25165-3 0  9990", "line2": "2 30246  98.6736 138.4907 0370532  75.9901 100.4014 13.37022656922669"}}, "geometry": {"type": "Point", "coordinates": [133.4714912461268, 31.54904201548892]}}, {"type": "Feature", "properties": {"norad_id": 30247, "name": "FENGYUN 1C DEB", "group": "fengyun-1c-debris", "lat": 54.59087248940782, "lon": 95.56481494119116, "alt_km": 819.5074704363815, "timestamp": "2025-12-22T14:45:57.677565+00:00", "meta": {"OBJECT_NAME": "FENGYUN 1C DEB", "OBJECT_ID": "1999-025XG", "EPOCH": "2025-12-21T12:40:44.034816", "MEAN_MOTION": 14.59485106, "ECCENTRICITY": 0.01924312, "INCLINATION": 98.2771, "RA_OF_ASC_NODE": 262.6639, "ARG_OF_PERICENTER": 324.7921, "MEAN_ANOMALY": 211.2938, "EPHEMERIS_TYPE": 0, "CLASSIFICATION_TYPE": "U", "NORAD_CAT_ID": 30247, "ELEMENT_SET_NO": 999, "REV_AT_EPOCH": 97410, "BSTAR": 0.0026470553, "MEAN_MOTION_DOT": 0.00016256, "MEAN_MOTION_DDOT": 0}, "tle": {"line1": "1 30247U 99025XG  25355.52828744  .00016256  00000+0  26471-2 0  9992", "line2": "2 30247  98.2771 262.6639 0192431 324.7921 211.2938 14.59485106974104"}}, "geometry": {"type": "Point", "coordinates": [95.56481494119116, 54.59087248940782]}}, {"type": "Feature", "properties": {"norad_id": 30248, "name": "FENGYUN 1C DEB", "group": "fengyun-1c-debris", "lat": 20.88679278201807, "lon": 5.184181051336875, "alt_km": 679.3555182657938, "timestamp": "2025-12-22T14:45:57.677576+00:00", "meta": {"OBJECT_NAME": "FENGYUN 1C DEB", "OBJECT_ID": "1999-025XH", "EPOCH": "2025-12-20T11:02:07.370592", "MEAN_MOTION": 14.59419163, "ECCENTRICITY": 0.00278685, "INCLINATION": 99.0961, "RA_OF_ASC_NODE": 179.3187, "ARG_OF_PERICENTER": 126.6858, "MEAN_ANOMALY": 233.6906, "EPHEMERIS_TYPE": 0, "CLASSIFICATION_TYPE": "U", "NORAD_CAT_ID": 30248, "ELEMENT_SET_NO": 999, "REV_AT_EPOCH": 97541, "BSTAR": 0.0023807089, "MEAN_MOTION_DOT": 0.00011303, "MEAN_MOTION_DDOT": 0}, "tle": {"line1": "1 30248U 99025XH  25354.45980753  .00011303  00000+0  23807-2 0  9991", "line2": "2 30248  99.0961 179.3187 0027868 126.6858 233.6906 14.59419163975414"}}, "geometry": {"type": "Point", "coordinates": [5.184181051336875, 20.88679278201807]}}, {"type": "Feature", "properties": {"norad_id": 30249, "name": "FENGYUN 1C DEB", "group": "fengyun-1c-debris", "lat": 8.173927109758525, "lon": -16.914076737970092, "alt_km": 719.5792813599055, "timestamp": "2025-12-22T14:45:57.677586+00:00", "meta": {"OBJECT_NAME": "FENGYUN 1C DEB", "OBJECT_ID": "1999-025XJ", "EPOCH": "2025-12-22T01:21:07.992000", "MEAN_MOTION": 14.57910052, "ECCENTRICITY": 0.00267071, "INCLINATION": 98.9593, "RA_OF_ASC_NODE": 161.186, "ARG_OF_PERICENTER": 12.2786, "MEAN_ANOMALY": 107.4938, "EPHEMERIS_TYPE": 0, "CLASSIFICATION_TYPE": "U", "NORAD_CAT_ID": 30249, "ELEMENT_SET_NO": 999, "REV_AT_EPOCH": 97699, "BSTAR": 0.0033975364, "MEAN_MOTION_DOT": 0.00015635, "MEAN_MOTION_DDOT": 0}, "tle": {"line1": "1 30249U 99025XJ  25356.05634250  .00015635  00000+0  33975-2 0  9997", "line2": "2 30249  98.9593 161.1860 0026707  12.2786 107.4938 14.57910052976990"}}, "geometry": {"type": "Point", "coordinates": [-16.914076737970092, 8.173927109758525]}}, {"type": "Feature", "properties": {"norad_id": 30250, "name": "FENGYUN 1C DEB", "group": "fengyun-1c-debris", "lat": 54.08525090620394, "lon": -24.120854471089714, "alt_km": 921.09876865151, "timestamp": "2025-12-22T14:45:57.677597+00:00", "meta": {"OBJECT_NAME": "FENGYUN 1C DEB", "OBJECT_ID": "1999-025XK", "EPOCH": "2025-12-21T23:20:46.164192", "MEAN_MOTION": 14.01634916, "ECCENTRICITY": 0.0068397, "INCLINATION": 98.7545, "RA_OF_ASC_NODE": 347.5464, "ARG_OF_PERICENTER": 197.2016, "MEAN_ANOMALY": 218.231, "EPHEMERIS_TYPE": 0, "CLASSIFICATION_TYPE": "U", "NORAD_CAT_ID": 30250, "ELEMENT_SET_NO": 999, "REV_AT_EPOCH": 96621, "BSTAR": 0.0002509, "MEAN_MOTION_DOT": 3.46e-06, "MEAN_MOTION_DDOT": 0}, "tle": {"line1": "1 30250U 99025XK  25355.97275653  .00000346  00000+0  25090-3 0  9990", "line2": "2 30250  98.7545 347.5464 0068397 197.2016 218.2310 14.01634916966218"}}, "geometry": {"type": "Point", "coordinates": [-24.120854471089714, 54.08525090620394]}}, {"type": "Feature", "properties": {"norad_id": 30251, "name": "FENGYUN 1C DEB", "group": "fengyun-1c-debris", "lat": 24.11070308087881, "lon": -168.7766441837319, "alt_km": 788.646338528566, "timestamp": "2025-12-22T14:45:57.677607+00:00", "meta": {"OBJECT_NAME": "FENGYUN 1C DEB", "OBJECT_ID": "1999-025XL", "EPOCH": "2025-12-21T20:13:49.939104", "MEAN_MOTION": 14.29324334, "ECCENTRICITY": 0.00514748, "INCLINATION": 99.0488, "RA_OF_ASC_NODE": 194.5117, "ARG_OF_PERICENTER": 303.7731, "MEAN_ANOMALY": 68.4308, "EPHEMERIS_TYPE": 0, "CLASSIFICATION_TYPE": "U", "NORAD_CAT_ID": 30251, "ELEMENT_SET_NO": 999, "REV_AT_EPOCH": 98272, "BSTAR": 0.00037738676, "MEAN_MOTION_DOT": 9.26e-06, "MEAN_MOTION_DDOT": 0}, "tle": {"line1": "1 30251U 99025XL  25355.84293911  .00000926  00000+0  37739-3 0  9991", "line2": "2 30251  99.0488 194.5117 0051474 303.7731  68.4308 14.29324334982726"}}, "geometry": {"type": "Point", "coordinates": [-168.7766441837319, 24.11070308087881]}}]}